SL-16 R/B               
1 23705U 95058B   26196.54066460  .00000192  00000+0  12261-3 0  9995
2 23705  71.0210 271.8302 0014616 282.3394  77.6093 14.15508949585941
SL-16 R/B               
1 24298U 96051B   26196.50074628  .00000157  00000+0  11183-3 0  9991
2 24298  70.7646 264.7305 0017820 297.6936  62.2375 14.12456593539691
ORBVIEW 2 (SEASTAR)     
1 24883U 97037A   26196.73590440  .00000088  00000+0  46682-4 0  9992
2 24883  98.8714   4.5499 0003074  59.7996 300.3492 14.35566909526848
SL-16 R/B               
1 25400U 98043G   26196.84882176 -.00000003  00000+0  17664-4 0  9994
2 25400  98.8379 151.2572 0009993   9.6080 350.5289 14.26072774457258
SL-16 R/B               
1 25407U 98045B   26196.48885999 -.00000184  00000+0 -68746-4 0  9997
2 25407  71.0109 272.8110 0008168 206.2295 153.8416 14.16205258445193
ISS (ZARYA)             
1 25544U 98067A   26196.76640667  .00004078  00000+0  82095-4 0  9992
2 25544  51.6311 158.6576 0006719 300.0875  59.9447 15.49019038576188
CZ-4B R/B               
1 25732U 99025C   26196.14665956  .00000016  00000+0  28531-4 0  9999
2 25732  98.6472 237.2795 0036635 339.8742  87.7118 14.18287708406234
OKEAN-O                 
1 25860U 99039A   26196.73393331  .00000276  00000+0  42876-4 0  9992
2 25860  97.9302 255.2018 0000882  88.0835 272.0478 14.80497852453332
SL-16 R/B               
1 25861U 99039B   26196.72923073  .00000232  00000+0  36158-4 0  9992
2 25861  97.9824 255.5087 0014344 196.6553 163.4191 14.81871150455821
DELTA 2 R/B             
1 25876U 99041E   26196.27556134  .00001267  00000+0  24210-3 0  9995
2 25876  51.7613 151.5757 0501387   4.9948 355.5728 14.12085285381050
HELIOS 1B               
1 25977U 99064A   26196.28633954  .00000650  00000+0  77122-4 0  9995
2 25977  98.1585 102.2367 0001921  54.1371 306.0023 14.88075271704236
TERRA                   
1 25994U 99068A   26196.85356950  .00000177  00000+0  44919-4 0  9991
2 25994  97.9441 245.2610 0003443 121.3032 327.0497 14.61123975413796
SL-16 R/B               
1 26070U 00006B   26196.39606549 -.00000130  00000+0 -41833-4 0  9995
2 26070  71.0002 189.3105 0017194 339.7349  20.3089 14.15837986366632
TITAN 4B R/B            
1 26474U 00047B   26196.86896859  .00001198  00000+0  79626-4 0  9999
2 26474  67.9873  39.8304 0045816 258.0896 101.5114 15.10334817412265
ENVISAT                 
1 27386U 02009A   26196.89689769  .00000017  00000+0  19313-4 0  9991
2 27386  98.3846 147.5774 0001325  83.1983 345.7951 14.39070823277618
IDEFIX & ARIANE 42P R/B 
1 27422U 02021B   26196.79549862  .00000088  00000+0  49884-4 0  9998
2 27422  98.5942 133.9693 0011926 164.7365 195.4180 14.31093901262347
AQUA                    
1 27424U 02022A   26195.50499725  .00000358  00000+0  80864-4 0  9994
2 27424  98.4295 165.3370 0000927 111.8770   0.7592 14.62196472287266
CZ-4B R/B               
1 27432U 02024C   26196.75505692  .00000005  00000+0  25409-4 0  9997
2 27432  98.8686 249.3874 0050437  20.4126  89.1850 14.14568324247345
MIDORI II (ADEOS-II)    
1 27597U 02056A   26196.48856205  .00000088  00000+0  52224-4 0  9999
2 27597  98.7895 155.9916 0001465  40.7601 319.3689 14.29363094228550
H-2A R/B                
1 27601U 02056E   26196.83309669  .00000114  00000+0  54205-4 0  9992
2 27601  98.3328 152.4659 0070922 139.0468 285.3483 14.33834089232478
CZ-4B R/B               
1 28059U 03049C   26196.49307089  .00000126  00000+0  40604-4 0  9990
2 28059  98.6910 196.4680 0047661 200.3297 159.6003 14.55116196205189
CZ-2C R/B               
1 28222U 04012C   26196.81295646  .00107268  00000+0  44647-3 0  9999
2 28222  97.7047 275.9435 0011107 188.8934 171.2140 15.85338523224421
SL-16 R/B               
1 28353U 04021B   26196.79961441 -.00000042  00000+0  27380-5 0  9994
2 28353  71.0029 323.6400 0006287 224.6358 135.4259 14.14616500140959
CZ-4B R/B               
1 28415U 04035C   26196.69781939  .00004234  00000+0  14218-3 0  9999
2 28415  97.3354 229.4554 0029279 230.7581 129.1062 15.30996440199482
CZ-2C R/B               
1 28480U 04046B   26196.30843764  .00000064  00000+0  38378-4 0  9997
2 28480  98.1916 103.3279 0140134 137.0583 224.1641 14.27033171126708
ARIANE 5 R/B            
1 28499U 04049H   26196.48847297  .00000206  00000+0  29716-4 0  9998
2 28499  98.2741   9.8391 0082638 297.3267  61.9552 14.85479048164760
CZ-2D R/B               
1 28738U 05024B   26196.05188630  .00045064  00000+0  33465-3 0  9996
2 28738  97.3469 216.9360 0002401 193.0107 167.1096 15.72739019159710
ALOS (DAICHI)           
1 28931U 06002A   26196.88176931  .00000455  00000+0  84053-4 0  9995
2 28931  98.1338 152.3631 0000828 101.2889 258.8410 14.70102533 92314
H-2A R/B                
1 28932U 06002B   26196.46024219  .00005015  00000+0  23940-3 0  9995
2 28932  98.2591 354.8589 0050814 165.1390 195.1349 15.18447770113815
RESURS-DK 1             
1 29228U 06021A   26196.52482071  .00000919  00000+0  57571-4 0  9992
2 29228  69.9307 266.1925 0007128 270.7395  89.2954 15.13319759106863
